{
    "links": {
        "self": "http://www.neowsapp.com/rest/v1/neo/3778068?api_key=iIulBulltgU6a56xZRHN4H3l9WmuAYTsLGpBGhQ2"
    },
    "id": "3778068",
    "neo_reference_id": "3778068",
    "name": "(2017 OF1)",
    "designation": "2017 OF1",
    "nasa_jpl_url": "http://ssd.jpl.nasa.gov/sbdb.cgi?sstr=3778068",
    "absolute_magnitude_h": 24.8,
    "estimated_diameter": {
        "kilometers": {
            "estimated_diameter_min": 0.0291443905,
            "estimated_diameter_max": 0.0651688382
        },
        "meters": {
            "estimated_diameter_min": 29.1443904535,
            "estimated_diameter_max": 65.1688382168
        },
        "miles": {
            "estimated_diameter_min": 0.018109479,
            "estimated_diameter_max": 0.0404940262
        },
        "feet": {
            "estimated_diameter_min": 95.6180819754,
            "estimated_diameter_max": 213.8085311752
        }
    },
    "is_potentially_hazardous_asteroid": false,
    "close_approach_data": [
        {
            "close_approach_date": "1915-04-15",
            "close_approach_date_full": "1915-Apr-15 16:43",
            "epoch_date_close_approach": -1726643820000,
            "relative_velocity": {
                "kilometers_per_second": "16.3288858976",
                "kilometers_per_hour": "58783.9892312372",
                "miles_per_hour": "36526.0848642652"
            },
            "miss_distance": {
                "astronomical": "0.3507216925",
                "lunar": "136.4307383825",
                "kilometers": "52467218.160794975",
                "miles": "32601617.608021655"
            },
            "orbiting_body": "Earth"
        },
        {
            "close_approach_date": "2015-04-16",
            "close_approach_date_full": "2015-Apr-16 10:50",
            "epoch_date_close_approach": 1429181400000,
            "relative_velocity": {
                "kilometers_per_second": "16.8183105297",
                "kilometers_per_hour": "60545.917906799",
                "miles_per_hour": "37620.8788238108"
            },
            "miss_distance": {
                "astronomical": "0.3665067101",
                "lunar": "142.5711102289",
                "kilometers": "54828623.171667487",
                "miles": "34068926.6417538406"
            },
            "orbiting_body": "Earth"
        },
        {
            "close_approach_date": "2017-07-04",
            "close_approach_date_full": "2017-Jul-04 18:23",
            "epoch_date_close_approach": 1499192580000,
            "relative_velocity": {
                "kilometers_per_second": "6.3231949254",
                "kilometers_per_hour": "22763.5017313276",
                "miles_per_hour": "14144.3547285574"
            },
            "miss_distance": {
                "astronomical": "0.0283623627",
                "lunar": "11.0329590903",
                "kilometers": "4242949.048087449",
                "miles": "2636446.2848428362"
            },
            "orbiting_body": "Earth"
        }
    ],
    "orbital_data": {
        "orbit_id": "8",
        "orbit_determination_date": "2017-08-18 06:22:08",
        "first_observation_date": "2017-07-20",
        "last_observation_date": "2017-08-17",
        "data_arc_in_days": 28,
        "observations_used": 42,
        "orbit_uncertainty": "7",
        "minimum_orbit_intersection": ".00448899",
        "jupiter_tisserand_invariant": "4.220",
        "epoch_osculation": "2459000.5",
        "eccentricity": ".379399145562156",
        "semi_major_axis": "1.634612251512091",
        "inclination": ".7614236214504465",
        "ascending_node_longitude": "234.8687782762203",
        "orbital_period": "763.3444482636006",
        "perihelion_distance": "1.014441759962972",
        "perihelion_argument": "24.40831863230161",
        "aphelion_distance": "2.25478274306121",
        "perihelion_time": "2458682.493166330739",
        "mean_anomaly": "149.9748382022691",
        "mean_motion": ".4716088534067436",
        "equinox": "J2000",
        "orbit_class": {
            "orbit_class_type": "APO",
            "orbit_class_description": "Near-Earth asteroid orbits which cross the Earth’s orbit similar to that of 1862 Apollo",
            "orbit_class_range": "a (semi-major axis) > 1.0 AU; q (perihelion) < 1.017 AU"
        }
    },
    "is_sentry_object": false
}